{"type": "FeatureCollection", "features": [ {"type": "Feature", "properties": {"norad_id": 66605, "name": "STARLINK-36052", "group": "last-30-days", "lat": -19.439143793445545, "lon": 104.10783993644397, "alt_km": 444.0299423886754, "timestamp": "2025-12-24T03:53:28.359921+00:00", "meta": {"OBJECT_NAME": "STARLINK-36052", "OBJECT_ID": "2025-270T", "EPOCH": "2025-12-23T18:40:57.101088", "MEAN_MOTION": 15.40742025, "ECCENTRICITY": 0.0004175, "INCLINATION": 43.0051, "RA_OF_ASC_NODE": 128.5705, "ARG_OF_PERICENTER": 274.749, "MEAN_ANOMALY": 85.2889, "EPHEMERIS_TYPE": 0, "CLASSIFICATION_TYPE": "U", "NORAD_CAT_ID": 66605, "ELEMENT_SET_NO": 999, "REV_AT_EPOCH": 605, "BSTAR": 0.0011033, "MEAN_MOTION_DOT": 0.00046136, "MEAN_MOTION_DDOT": 0}, "tle": {"line1": "1 66605U 25270T   25357.77843867  .00046136  00000+0  11033-2 0  9990", "line2": "2 66605  43.0051 128.5705 0004175 274.7490  85.2889 15.40742025  6057"}}, "geometry": {"type": "Point", "coordinates": [104.10783993644397, -19.439143793445545]}}, {"type": "Feature", "properties": {"norad_id": 66606, "name": "STARLINK-36063", "group": "last-30-days", "lat": 35.20917721881436, "lon": 175.3705031001677, "alt_km": 439.1853306144185, "timestamp": "2025-12-24T03:53:28.359931+00:00", "meta": {"OBJECT_NAME": "STARLINK-36063", "OBJECT_ID": "2025-270U", "EPOCH": "2025-12-23T20:00:01.000224", "MEAN_MOTION": 15.40643694, "ECCENTRICITY": 0.0001375, "INCLINATION": 43.0007, "RA_OF_ASC_NODE": 128.0433, "ARG_OF_PERICENTER": 270.6131, "MEAN_ANOMALY": 121.3987, "EPHEMERIS_TYPE": 0, "CLASSIFICATION_TYPE": "U", "NORAD_CAT_ID": 66606, "ELEMENT_SET_NO": 999, "REV_AT_EPOCH": 602, "BSTAR": 0.0022168, "MEAN_MOTION_DOT": 0.00093264, "MEAN_MOTION_DDOT": 0}, "tle": {"line1": "1 66606U 25270U   25357.83334491  .00093264  00000+0  22168-2 0  9991", "line2": "2 66606  43.0007 128.0433 0001375 270.6131 121.3987 15.40643694  6028"}}, "geometry": {"type": "Point", "coordinates": [175.3705031001677, 35.20917721881436]}}, {"type": "Feature", "properties": {"norad_id": 66607, "name": "STARLINK-35993", "group": "last-30-days", "lat": -11.326994066510547, "lon": 113.91615147710887, "alt_km": 444.1149396349274, "timestamp": "2025-12-24T03:53:28.359942+00:00", "meta": {"OBJECT_NAME": "STARLINK-35993", "OBJECT_ID": "2025-270V", "EPOCH": "2025-12-23T18:37:43.843296", "MEAN_MOTION": 15.4077053, "ECCENTRICITY": 0.0003296, "INCLINATION": 43.0018, "RA_OF_ASC_NODE": 128.5532, "ARG_OF_PERICENTER": 268.5661, "MEAN_ANOMALY": 91.4818, "EPHEMERIS_TYPE": 0, "CLASSIFICATION_TYPE": "U", "NORAD_CAT_ID": 66607, "ELEMENT_SET_NO": 999, "REV_AT_EPOCH": 595, "BSTAR": 0.0015823, "MEAN_MOTION_DOT": 0.00066533, "MEAN_MOTION_DDOT": 0}, "tle": {"line1": "1 66607U 25270V   25357.77620189  .00066533  00000+0  15823-2 0  9996", "line2": "2 66607  43.0018 128.5532 0003296 268.5661  91.4818 15.40770530  5955"}}, "geometry": {"type": "Point", "coordinates": [113.91615147710887, -11.326994066510547]}}, {"type": "Feature", "properties": {"norad_id": 66608, "name": "STARLINK-36036", "group": "last-30-days", "lat": 39.897621254554444, "lon": -170.09245961556542, "alt_km": 438.67714111862733, "timestamp": "2025-12-24T03:53:28.359955+00:00", "meta": {"OBJECT_NAME": "STARLINK-36036", "OBJECT_ID": "2025-270W", "EPOCH": "2025-12-23T20:00:01.000224", "MEAN_MOTION": 15.40640593, "ECCENTRICITY": 0.0001584, "INCLINATION": 43.0007, "RA_OF_ASC_NODE": 128.013, "ARG_OF_PERICENTER": 270.6486, "MEAN_ANOMALY": 133.797, "EPHEMERIS_TYPE": 0, "CLASSIFICATION_TYPE": "U", "NORAD_CAT_ID": 66608, "ELEMENT_SET_NO": 999, "REV_AT_EPOCH": 602, "BSTAR": 0.0022914, "MEAN_MOTION_DOT": 0.00096443, "MEAN_MOTION_DDOT": 0}, "tle": {"line1": "1 66608U 25270W   25357.83334491  .00096443  00000+0  22914-2 0  9994", "line2": "2 66608  43.0007 128.0130 0001584 270.6486 133.7970 15.40640593  6023"}}, "geometry": {"type": "Point", "coordinates": [-170.09245961556542, 39.897621254554444]}}, {"type": "Feature", "properties": {"norad_id": 66609, "name": "STARLINK-36034", "group": "last-30-days", "lat": 42.76762842458102, "lon": -136.95897197127528, "alt_km": 438.30363800843134, "timestamp": "2025-12-24T03:53:28.359965+00:00", "meta": {"OBJECT_NAME": "STARLINK-36034", "OBJECT_ID": "2025-270X", "EPOCH": "2025-12-23T20:00:01.000224", "MEAN_MOTION": 15.4064854, "ECCENTRICITY": 0.0001716, "INCLINATION": 43.0006, "RA_OF_ASC_NODE": 127.9532, "ARG_OF_PERICENTER": 288.0979, "MEAN_ANOMALY": 141.2249, "EPHEMERIS_TYPE": 0, "CLASSIFICATION_TYPE": "U", "NORAD_CAT_ID": 66609, "ELEMENT_SET_NO": 999, "REV_AT_EPOCH": 602, "BSTAR": 0.0027839, "MEAN_MOTION_DOT": 0.00117593, "MEAN_MOTION_DDOT": 0}, "tle": {"line1": "1 66609U 25270X   25357.83334491  .00117593  00000+0  27839-2 0  9996", "line2": "2 66609  43.0006 127.9532 0001716 288.0979 141.2249 15.40648540  6027"}}, "geometry": {"type": "Point", "coordinates": [-136.95897197127528, 42.76762842458102]}}, {"type": "Feature", "properties": {"norad_id": 66610, "name": "STARLINK-35680", "group": "last-30-days", "lat": 5.421778005277582, "lon": 132.11440455930563, "alt_km": 442.86239962065156, "timestamp": "2025-12-24T03:53:28.359977+00:00", "meta": {"OBJECT_NAME": "STARLINK-35680", "OBJECT_ID": "2025-270Y", "EPOCH": "2025-12-23T20:00:01.000224", "MEAN_MOTION": 15.40642058, "ECCENTRICITY": 0.0001759, "INCLINATION": 43.0005, "RA_OF_ASC_NODE": 128.1637, "ARG_OF_PERICENTER": 286.3827, "MEAN_ANOMALY": 55.8806, "EPHEMERIS_TYPE": 0, "CLASSIFICATION_TYPE": "U", "NORAD_CAT_ID": 66610, "ELEMENT_SET_NO": 999, "REV_AT_EPOCH": 613, "BSTAR": 0.002156, "MEAN_MOTION_DOT": 0.00090661, "MEAN_MOTION_DDOT": 0}, "tle": {"line1": "1 66610U 25270Y   25357.83334491  .00090661  00000+0  21560-2 0  9999", "line2": "2 66610  43.0005 128.1637 0001759 286.3827  55.8806 15.40642058  6136"}}, "geometry": {"type": "Point", "coordinates": [132.11440455930563, 5.421778005277582]}}, {"type": "Feature", "properties": {"norad_id": 66611, "name": "STARLINK-35583", "group": "last-30-days", "lat": 21.70828103689973, "lon": 151.5004065741664, "alt_km": 441.03920282160834, "timestamp": "2025-12-24T03:53:28.359988+00:00", "meta": {"OBJECT_NAME": "STARLINK-35583", "OBJECT_ID": "2025-270Z", "EPOCH": "2025-12-23T20:00:01.000224", "MEAN_MOTION": 15.40641772, "ECCENTRICITY": 0.0001624, "INCLINATION": 43.0008, "RA_OF_ASC_NODE": 128.1043, "ARG_OF_PERICENTER": 277.2995, "MEAN_ANOMALY": 89.841, "EPHEMERIS_TYPE": 0, "CLASSIFICATION_TYPE": "U", "NORAD_CAT_ID": 66611, "ELEMENT_SET_NO": 999, "REV_AT_EPOCH": 608, "BSTAR": 0.0022559, "MEAN_MOTION_DOT": 0.00094927, "MEAN_MOTION_DDOT": 0}, "tle": {"line1": "1 66611U 25270Z   25357.83334491  .00094927  00000+0  22559-2 0  9998", "line2": "2 66611  43.0008 128.1043 0001624 277.2995  89.8410 15.40641772  6081"}}, "geometry": {"type": "Point", "coordinates": [151.5004065741664, 21.70828103689973]}}, {"type": "Feature", "properties": {"norad_id": 66612, "name": "STARLINK-36039", "group": "last-30-days", "lat": 23.501461567307175, "lon": -81.0081053643802, "alt_km": 441.9500923859214, "timestamp": "2025-12-24T03:53:28.359998+00:00", "meta": {"OBJECT_NAME": "STARLINK-36039", "OBJECT_ID": "2025-270AA", "EPOCH": "2025-12-23T16:22:38.452800", "MEAN_MOTION": 15.40713516, "ECCENTRICITY": 0.0003024, "INCLINATION": 43.0008, "RA_OF_ASC_NODE": 129.5729, "ARG_OF_PERICENTER": 286.0401, "MEAN_ANOMALY": 74.0123, "EPHEMERIS_TYPE": 0, "CLASSIFICATION_TYPE": "U", "NORAD_CAT_ID": 66612, "ELEMENT_SET_NO": 999, "REV_AT_EPOCH": 603, "BSTAR": 0.00019025, "MEAN_MOTION_DOT": 7.655e-05, "MEAN_MOTION_DDOT": 0}, "tle": {"line1": "1 66612U 25270AA  25357.68238950  .00007655  00000+0  19025-3 0  9992", "line2": "2 66612  43.0008 129.5729 0003024 286.0401  74.0123 15.40713516  6032"}}, "geometry": {"type": "Point", "coordinates": [-81.0081053643802, 23.501461567307175]}}, {"type": "Feature", "properties": {"norad_id": 66613, "name": "STARLINK-36037", "group": "last-30-days", "lat": 7.4144328398843165, "lon": -61.27751604194863, "alt_km": 442.9171272489766, "timestamp": "2025-12-24T03:53:28.360008+00:00", "meta": {"OBJECT_NAME": "STARLINK-36037", "OBJECT_ID": "2025-270AB", "EPOCH": "2025-12-23T16:16:11.671968", "MEAN_MOTION": 15.40705022, "ECCENTRICITY": 0.000259, "INCLINATION": 43.0001, "RA_OF_ASC_NODE": 129.5412, "ARG_OF_PERICENTER": 264.3508, "MEAN_ANOMALY": 95.7053, "EPHEMERIS_TYPE": 0, "CLASSIFICATION_TYPE": "U", "NORAD_CAT_ID": 66613, "ELEMENT_SET_NO": 999, "REV_AT_EPOCH": 603, "BSTAR": 0.0010652, "MEAN_MOTION_DOT": 0.00044463, "MEAN_MOTION_DDOT": 0}, "tle": {"line1": "1 66613U 25270AB  25357.67791287  .00044463  00000+0  10652-2 0  9993", "line2": "2 66613  43.0001 129.5412 0002590 264.3508  95.7053 15.40705022  6034"}}, "geometry": {"type": "Point", "coordinates": [-61.27751604194863, 7.4144328398843165]}}, {"type": "Feature", "properties": {"norad_id": 66614, "name": "STARLINK-36040", "group": "last-30-days", "lat": -42.00920268075154, "lon": 51.32965961215661, "alt_km": 446.21052120196873, "timestamp": "2025-12-24T03:53:28.360022+00:00", "meta": {"OBJECT_NAME": "STARLINK-36040", "OBJECT_ID": "2025-270AC", "EPOCH": "2025-12-23T17:20:30.892128", "MEAN_MOTION": 15.40710753, "ECCENTRICITY": 0.0001584, "INCLINATION": 42.9995, "RA_OF_ASC_NODE": 129.0087, "ARG_OF_PERICENTER": 268.7324, "MEAN_ANOMALY": 91.3351, "EPHEMERIS_TYPE": 0, "CLASSIFICATION_TYPE": "U", "NORAD_CAT_ID": 66614, "ELEMENT_SET_NO": 999, "REV_AT_EPOCH": 588, "BSTAR": 0.00065119, "MEAN_MOTION_DOT": 0.00027004, "MEAN_MOTION_DDOT": 0}, "tle": {"line1": "1 66614U 25270AC  25357.72257977  .00027004  00000+0  65119-3 0  9994", "line2": "2 66614  42.9995 129.0087 0001584 268.7324  91.3351 15.40710753  5886"}}, "geometry": {"type": "Point", "coordinates": [51.32965961215661, -42.00920268075154]}}]}